[{"OBJECT_NAME":"STARLINK-32512","OBJECT_ID":"2024-213V","EPOCH":"2026-03-09T14:20:01.642272","MEAN_MOTION":15.30163731,"ECCENTRICITY":0.0001307,"INCLINATION":53.1609,"RA_OF_ASC_NODE":168.3417,"ARG_OF_PERICENTER":55.1216,"MEAN_ANOMALY":304.9907,"EPHEMERIS_TYPE":0,"CLASSIFICATION_TYPE":"U","NORAD_CAT_ID":62027,"ELEMENT_SET_NO":999,"REV_AT_EPOCH":7314,"BSTAR":-0.00036984,"MEAN_MOTION_DOT":-0.00011284,"MEAN_MOTION_DDOT":0},{"OBJECT_NAME":"ARIANE 3 DEB","OBJECT_ID":"1986-026F","EPOCH":"2026-03-09T15:10:47.020224","MEAN_MOTION":2.95802334,"ECCENTRICITY":0.66721151,"INCLINATION":8.5384,"RA_OF_ASC_NODE":268.4602,"ARG_OF_PERICENTER":28.9231,"MEAN_ANOMALY":355.6123,"EPHEMERIS_TYPE":0,"CLASSIFICATION_TYPE":"U","NORAD_CAT_ID":17254,"ELEMENT_SET_NO":999,"REV_AT_EPOCH":34154,"BSTAR":0.0049157481,"MEAN_MOTION_DOT":1.788e-5,"MEAN_MOTION_DDOT":0}]
